{
  "type": "FeatureCollection",
  "features": [
    {
      "type": "Feature",
      "geometry": {
        "type": "Polygon",
        "coordinates": [
          [
            [
              6.890862,
              47.208041
            ],
            [
              7.659696,
              46.594175
            ],
            [
              8.670164,
              46.99483
            ],
            [
              7.232064,
              47.500625
            ],
            [
              6.901845,
              47.581886
            ],
            [
              6.890862,
              47.208041
            ]
          ]
        ]
      },
      "properties": {
        "name": "berne"
      }
    },
    {
      "type": "Feature",
      "geometry": {
        "type": "Polygon",
        "coordinates": [
          [
            [
              6.866149,
              47.209907
            ],
            [
              5.902361,
              46.533724
            ],
            [
              5.940803,
              45.950356
            ],
            [
              7.654205,
              46.596063
            ],
            [
              6.866149,
              47.209907
            ]
          ]
        ]
      },
      "properties": {
        "name": "geneve"
      }
    },
    {
      "type": "Feature",
      "geometry": {
        "type": "Polygon",
        "coordinates": [
          [
            [
              8.533123,
              47.917962
            ],
            [
              9.818175,
              47.516835
            ],
            [
              9.658916,
              47.077078
            ],
            [
              8.662178,
              47.000307
            ],
            [
              7.223359,
              47.494563
            ],
            [
              8.533123,
              47.917962
            ]
          ]
        ]
      },
      "properties": {
        "name": "zurich"
      }
    },
    {
      "type": "Feature",
      "geometry": {
        "type": "Polygon",
        "coordinates": [
          [
            [
              6.679005,
              46.212625
            ],
            [
              7.178747,
              45.658489
            ],
            [
              9.221649,
              45.700721
            ],
            [
              11.286518,
              46.761226
            ],
            [
              10.056384,
              47.222255
            ],
            [
              9.666475,
              47.08399
            ],
            [
              8.683465,
              47.012849
            ],
            [
              6.679005,
              46.212625
            ]
          ]
        ]
      },
      "properties": {
        "name": "south"
      }
    }
  ]
}